H-2A R/B                
1 28932U 06002B   26198.04179147  .00004914  00000+0  23452-3 0  9997
2 28932  98.2598 356.5850 0050908 159.7913 200.5350 15.18463958114052
RESURS-DK 1             
1 29228U 06021A   26197.45020316  .00000852  00000+0  53811-4 0  9994
2 29228  69.9306 263.7965 0007178 269.6714  90.3630 15.13321208107009
CZ-4B R/B               
1 29507U 06046C   26198.11592359  .00002178  00000+0  10917-3 0  9998
2 29507  97.5434 242.6314 0032768 175.5082 184.6452 15.17990456 79679
CZ-2C R/B               
1 31114U 07010B   26198.21184331  .00000041  00000+0  37913-4 0  9998
2 31114  98.4121 305.0976 0057749 277.7894  81.6729 14.20282135998101
COSMO-SKYMED 1          
1 31598U 07023A   26198.27716000  .00001505  00000+0  13524-3 0  9995
2 31598  97.8848  30.3877 0001599 102.0659 258.0742 14.97225686 34293
COSMOS 2428             
1 31792U 07029A   26198.23193062  .00000274  00000+0  17248-3 0  9999
2 31792  70.9382 291.3952 0007237  77.2015 282.9915 14.12935758982397
SL-16 R/B               
1 31793U 07029B   26198.21892618  .00000252  00000+0  15546-3 0  9996
2 31793  70.9743 260.0986 0001921 256.8892 120.3274 14.14852788983691
KORONAS-FOTON           
1 33504U 09003A   26198.30448185  .00007575  00000+0  15238-3 0  9991
2 33504  82.4312 140.8294 0012009  55.8737 304.3649 15.46332151965754
CZ-2C R/B               
1 37731U 11030B   26198.31864448  .00000433  00000+0  61026-4 0  9998
2 37731  97.8671 153.1655 0050737 289.0567 237.2174 14.81534556809281
H-2A R/B                
1 38341U 12025E   26197.92517588  .00000582  00000+0  57508-4 0  9992
2 38341  98.4846 175.5285 0042579 249.2386 110.4268 14.95839807767538
SHIJIAN-16 (SJ-16)      
1 39358U 13057A   26198.33399684  .00001097  00000+0  10896-3 0  9998
2 39358  74.9743 299.5833 0015676 159.5844 200.5975 14.92676445690847
SL-4 R/B                
1 39679U 14021B   26198.12979331  .00005029  00000+0  10805-3 0  9995
2 39679  51.6063  64.0188 0089583 215.6000 143.8989 15.42505999676236
ALOS-2                  
1 39766U 14029A   26198.30342684  .00000820  00000+0  11670-3 0  9990
2 39766  97.9234 295.0366 0001592  92.4001 267.7393 14.79470616656033
YAOGAN-29               
1 41038U 15069A   26198.33580036  .00000057  00000+0  13667-4 0  9999
2 41038  98.0014 227.0148 0000585   9.4715 350.6509 14.83107652575099
ASTRO-H (HITOMI)        
1 41337U 16012A   26198.29773467  .00001219  00000+0  66196-4 0  9993
2 41337  30.9979 239.7062 0009627 196.6219 163.4104 15.10637449571848
HXMT (HUIYAN)           
1 42758U 17034A   26197.99571619  .00002246  00000+0  11653-3 0  9995
2 42758  43.0154  17.0306 0032082 332.0044  27.9078 15.18698236502192
SAOCOM 1A               
1 43641U 18076A   26198.31327042 -.00000506  00000+0 -56994-4 0  9997
2 43641  97.8882  24.6236 0001449  85.4857 274.6522 14.82146270420560
H-2A R/B                
1 43682U 18084L   26198.10048835  .00012582  00000+0  25610-3 0  9993
2 43682  98.8525  83.5493 0020440 293.5342  66.3756 15.46248756425745
SAOCOM 1B               
1 46265U 20059A   26197.93939534  .00000538  00000+0  74093-4 0  9991
2 46265  97.8884  23.3516 0001537  82.2102 277.9286 14.82159769317891
CSS (TIANHE)            
1 48274U 21035A   26198.26602711  .00001169  00000+0  19327-4 0  9999
2 48274  41.4689 139.2812 0001963 303.2337  56.8313 15.58142333297868
COSMOS 2550             
1 48865U 21056A   26198.28068310  .00002607  00000+0  85004-4 0  9994
2 48865  67.1438   8.8743 0008533 270.1431  89.8746 15.33839837283330
CZ-2C R/B               
1 52794U 22058K   26197.97156529  .00026568  00000+0  27450-3 0  9990
2 52794  50.1853   8.2910 0030248  30.0263 330.2439 15.63953565230302
CZ-2C R/B               
1 54039U 22132E   26198.29862262  .00045166  00000+0  30147-3 0  9993
2 54039  97.2889 206.7508 0009039 332.4817  27.5969 15.75181040210680
GSLV R/B                
1 54149U 22138AN  26198.25849190  .00001451  00000+0  12172-3 0  9999
2 54149  87.3816 122.8866 0023302  45.4523 314.8607 14.97388132203318
XRISM                   
1 57800U 23137A   26198.28189111  .00002285  00000+0  12191-3 0  9996
2 57800  31.0010 164.6224 0007861 266.9563  93.0176 15.12678470157427
ACS3                    
1 59588U 24077B   26197.76022213  .00007071  00000+0  49014-2 0  9997
2 59588  97.1749 109.9964 0127345  34.8997 326.0437 13.95288377112163
SPACEMOBILE-003         
1 61045U 24163A   26198.31644291  .00001179  00000+0  67586-4 0  9991
2 61045  52.9669 170.8888 0004556 200.3744 159.7069 15.20711173102351
SPACEMOBILE-005         
1 61046U 24163B   26198.23415168  .00002231  00000+0  11478-3 0  9990
2 61046  52.9761 171.2183 0008600 201.8566 158.2063 15.20722463102330
SPACEMOBILE-001         
1 61047U 24163C   26198.03530451  .00000145  00000+0  21220-4 0  9991
2 61047  52.9725 171.8417 0007093 199.2363 160.8365 15.20743460102308
SPACEMOBILE-002         
1 61048U 24163D   26198.21631314 -.00008289  00000+0 -35752-3 0  9995
2 61048  52.9783 171.0502 0005651 199.5140 160.5639 15.20736530102338
