OBJECT_NAME,OBJECT_ID,EPOCH,MEAN_MOTION,ECCENTRICITY,INCLINATION,RA_OF_ASC_NODE,ARG_OF_PERICENTER,MEAN_ANOMALY,EPHEMERIS_TYPE,CLASSIFICATION_TYPE,NORAD_CAT_ID,ELEMENT_SET_NO,REV_AT_EPOCH,BSTAR,MEAN_MOTION_DOT,MEAN_MOTION_DDOT
H-2A R/B,2006-002B,2026-07-17T01:00:10.783008,15.18463958,.00509087,98.2598,356.5850,159.7913,200.5350,0,U,28932,999,11405,.23452379E-3,.4914E-4,0
RESURS-DK 1,2006-021A,2026-07-16T10:48:17.553024,15.13321208,.0007178,69.9306,263.7965,269.6714,90.3630,0,U,29228,999,10700,.53811E-4,.852E-5,0
CZ-4B R/B,2006-046C,2026-07-17T02:46:55.798176,15.17990456,.00327681,97.5434,242.6314,175.5082,184.6452,0,U,29507,999,7967,.10916851E-3,.2178E-4,0
CZ-2C R/B,2007-010B,2026-07-17T05:05:03.261984,14.20282135,.00577497,98.4121,305.0976,277.7894,81.6729,0,U,31114,999,99810,.37912716E-4,.41E-6,0
COSMO-SKYMED 1,2007-023A,2026-07-17T06:39:06.624000,14.97225686,.00015997,97.8848,30.3877,102.0659,258.0742,0,U,31598,999,3429,.13523782E-3,.1505E-4,0
COSMOS 2428,2007-029A,2026-07-17T05:33:58.805568,14.12935758,.00072372,70.9382,291.3952,77.2015,282.9915,0,U,31792,999,98239,.17248278E-3,.274E-5,0
SL-16 R/B,2007-029B,2026-07-17T05:15:15.221952,14.14852788,.00019215,70.9743,260.0986,256.8892,120.3274,0,U,31793,999,98369,.15546427E-3,.252E-5,0
KORONAS-FOTON,2009-003A,2026-07-17T07:18:27.231840,15.46332151,.00120093,82.4312,140.8294,55.8737,304.3649,0,U,33504,999,96575,.152377E-3,.7575E-4,0
CZ-2C R/B,2011-030B,2026-07-17T07:38:50.883072,14.81534556,.00507375,97.8671,153.1655,289.0567,237.2174,0,U,37731,999,80928,.61025588E-4,.433E-5,0
H-2A R/B,2012-025E,2026-07-16T22:12:15.196032,14.95839807,.00425794,98.4846,175.5285,249.2386,110.4268,0,U,38341,999,76753,.57507567E-4,.582E-5,0
SHIJIAN-16 (SJ-16),2013-057A,2026-07-17T08:00:57.326976,14.92676445,.00156767,74.9743,299.5833,159.5844,200.5975,0,U,39358,999,69084,.10896429E-3,.1097E-4,0
SL-4 R/B,2014-021B,2026-07-17T03:06:54.141984,15.42505999,.00895836,51.6063,64.0188,215.6000,143.8989,0,U,39679,999,67623,.10804761E-3,.5029E-4,0
ALOS-2,2014-029A,2026-07-17T07:16:56.078976,14.79470616,.00015927,97.9234,295.0366,92.4001,267.7393,0,U,39766,999,65603,.1166954E-3,.82E-5,0
YAOGAN-29,2015-069A,2026-07-17T08:03:33.151104,14.83107652,.00005858,98.0014,227.0148,9.4715,350.6509,0,U,41038,999,57509,.13666604E-4,.57E-6,0
ASTRO-H (HITOMI),2016-012A,2026-07-17T07:08:44.275488,15.10637449,.00096276,30.9979,239.7062,196.6219,163.4104,0,U,41337,999,57184,.66196413E-4,.1219E-4,0
HXMT (HUIYAN),2017-034A,2026-07-16T23:53:49.878816,15.18698236,.00320827,43.0154,17.0306,332.0044,27.9078,0,U,42758,999,50219,.11653389E-3,.2246E-4,0
SAOCOM 1A,2018-076A,2026-07-17T07:31:06.564288,14.82146270,.00014497,97.8882,24.6236,85.4857,274.6522,0,U,43641,999,42056,-.56994204E-4,-.506E-5,0
H-2A R/B,2018-084L,2026-07-17T02:24:42.193440,15.46248756,.00204401,98.8525,83.5493,293.5342,66.3756,0,U,43682,999,42574,.25610328E-3,.12582E-3,0
SAOCOM 1B,2020-059A,2026-07-16T22:32:43.757376,14.82159769,.00015374,97.8884,23.3516,82.2102,277.9286,0,U,46265,999,31789,.74093384E-4,.538E-5,0
CSS (TIANHE),2021-035A,2026-07-17T06:23:04.742304,15.58142333,.00019631,41.4689,139.2812,303.2337,56.8313,0,U,48274,999,29786,.19326917E-4,.1169E-4,0
COSMOS 2550,2021-056A,2026-07-17T06:44:11.019840,15.33839837,.00085338,67.1438,8.8743,270.1431,89.8746,0,U,48865,999,28333,.85004142E-4,.2607E-4,0
CZ-2C R/B,2022-058K,2026-07-16T23:19:03.241056,15.63953565,.00302488,50.1853,8.2910,30.0263,330.2439,0,U,52794,999,23030,.27449814E-3,.26568E-3,0
CZ-2C R/B,2022-132E,2026-07-17T07:10:00.994368,15.75181040,.00090395,97.2889,206.7508,332.4817,27.5969,0,U,54039,999,21068,.30147247E-3,.45166E-3,0
GSLV R/B,2022-138AN,2026-07-17T06:12:13.700160,14.97388132,.00233024,87.3816,122.8866,45.4523,314.8607,0,U,54149,999,20331,.12172183E-3,.1451E-4,0
XRISM,2023-137A,2026-07-17T06:45:55.391904,15.12678470,.00078613,31.0010,164.6224,266.9563,93.0176,0,U,57800,999,15742,.1219085E-3,.2285E-4,0
ACS3,2024-077B,2026-07-16T18:14:43.192032,13.95288377,.0127345,97.1749,109.9964,34.8997,326.0437,0,U,59588,999,11216,.49014252E-2,.7071E-4,0
SPACEMOBILE-003,2024-163A,2026-07-17T07:35:40.667424,15.20711173,.00045565,52.9669,170.8888,200.3744,159.7069,0,U,61045,999,10235,.67586399E-4,.1179E-4,0
SPACEMOBILE-005,2024-163B,2026-07-17T05:37:10.705152,15.20722463,.00086004,52.9761,171.2183,201.8566,158.2063,0,U,61046,999,10233,.11477895E-3,.2231E-4,0
SPACEMOBILE-001,2024-163C,2026-07-17T00:50:50.309664,15.20743460,.00070937,52.9725,171.8417,199.2363,160.8365,0,U,61047,999,10230,.21220399E-4,.145E-5,0
SPACEMOBILE-002,2024-163D,2026-07-17T05:11:29.455296,15.20736530,.00056511,52.9783,171.0502,199.5140,160.5639,0,U,61048,999,10233,-.3575183E-3,-.8289E-4,0
